COSMOS 2426 (717)       
1 29671U 06062B   20081.34986166  .00000038  00000-0  10000-3 0  9998
2 29671  64.9975 270.8879 0019753 169.7801 213.6101  2.12962357103022
COSMOS 2433 (720)       
1 32275U 07052A   20081.06168771 -.00000074  00000-0  10000-3 0  9996
2 32275  65.9547  31.8649 0004690 276.3435 340.7800  2.13104257 96526
COSMOS 2432 (719)       
1 32276U 07052B   20082.06770044 -.00000074  00000-0  10000-3 0  9990
2 32276  65.9675  31.9187 0012646 325.7398 293.5401  2.13103622 96543
COSMOS 2434 (721)       
1 32393U 07065A   20081.34926093  .00000036  00000-0  00000+0 0  9993
2 32393  64.6000 269.4407 0005147  83.7842 281.4277  2.13102944 95246
COSMOS 2436 (723)       
1 32395U 07065C   20081.21509259  .00000038  00000-0  10000-3 0  9999
2 32395  64.6176 269.4961 0015327   8.0241  30.5238  2.13102937 95175
COSMOS 2456 (730)       
1 36111U 09070A   20081.46057948  .00000013  00000-0  00000+0 0  9995
2 36111  64.2190 149.1052 0004651 310.4453 313.5598  2.13102718 79908
COSMOS 2457 (733)       
1 36112U 09070B   20080.52023986 -.00000000  00000-0  00000+0 0  9994
2 36112  64.2009 149.0346 0005190 175.4153 210.8957  2.13101397 79896
COSMOS 2459 (731)       
1 36400U 10007A   20081.25946575 -.00000076  00000-0  10000-3 0  9993
2 36400  65.8597  30.8412 0027195 346.7576 277.1937  2.13105106 78252
COSMOS 2461 (735)       
1 36401U 10007B   20081.72161120 -.00000076  00000-0  10000-3 0  9991
2 36401  65.8511  30.7949 0006262  42.3833 125.2029  2.13101919 78264
COSMOS 2460 (732)       
1 36402U 10007C   20082.15952102 -.00000076  00000-0  10000-3 0  9998
2 36402  65.8428  30.7433 0002188 314.0780 228.7544  2.13101331 78273
COSMOS 2464 (736)       
1 37139U 10041C   20081.08541970  .00000037  00000-0  00000+0 0  9993
2 37139  64.2078 268.9337 0027795  14.6291  12.4374  2.13100653 74321
COSMOS 2474 (742)       
1 37829U 11055A   20081.98804961  .00000019  00000-0  00000+0 0  9996
2 37829  64.5392 150.0771 0009721 246.6214 277.1992  2.13101662 65915
COSMOS 2476 (744)       
1 37867U 11064A   20082.24178616  .00000022  00000-0  00000+0 0  9993
2 37867  64.5188 150.1125 0020139 239.7928 164.9087  2.13101889 65273
COSMOS 2477 (745)       
1 37868U 11064B   20080.78046792  .00000002  00000-0  00000+0 0  9998
2 37868  64.5267 150.2212 0017863 241.3751 300.7900  2.13101443 65194
COSMOS 2475 (743)       
1 37869U 11064C   20081.45380938  .00000011  00000-0  00000+0 0  9997
2 37869  64.5341 150.1947 0021836 262.2388  33.8062  2.13101796 65212
COSMOS 2485 (747)       
1 39155U 13019A   20081.80913890  .00000016  00000-0  00000+0 0  9992
2 39155  64.6868 150.3771 0020642 235.2342 242.1580  2.13101789 53734
COSMOS 2492 (754)       
1 39620U 14012A   20082.40594417 -.00000076  00000-0  10000-3 0  9992
2 39620  65.7312  30.5284 0015858 322.3770 287.9690  2.13103222 46691
COSMOS 2500 (755)       
1 40001U 14032A   20082.14101250 -.00000076  00000-0  00000+0 0  9994
2 40001  65.6731  30.4583 0006263 228.5412  39.2996  2.13102600 44909
COSMOS 2501 (702K)      
1 40315U 14075A   20082.48691216  .00000025  00000-0  00000+0 0  9995
2 40315  63.9250 269.8642 0014803 204.3504 124.5289  2.13098568 41313
COSMOS 2514 (751)       
1 41330U 16008A   20081.81940856 -.00000077  00000-0  00000+0 0  9992
2 41330  65.4747  30.3631 0010004 229.2261 334.1502  2.13102977 32062
COSMOS 2516 (753)       
1 41554U 16032A   20081.41855035  .00000034  00000-0  00000+0 0  9999
2 41554  64.1487 269.9488 0010252 214.1178 292.4534  2.13101730 29661
COSMOS 2522 (752)       
1 42939U 17055A   20081.19827046  .00000037  00000-0  00000+0 0  9992
2 42939  64.3765 270.1077 0005026 250.5094 313.6366  2.13101970 19419
COSMOS 2527 (756)       
1 43508U 18053A   20082.43977009  .00000025  00000-0  00000+0 0  9994
2 43508  64.8512 150.1840 0007828 234.4439 233.8102  2.13102566 13730
COSMOS 2529 (757)       
1 43687U 18086A   20081.75035245  .00000033  00000-0  00000+0 0  9998
2 43687  64.5912 270.1886 0007943 280.5984 302.7050  2.13101996 10738
COSMOS 2534 (758)       
1 44299U 19030A   20080.83469442  .00000041  00000-0  00000+0 0  9995
2 44299  64.6622 270.0263 0011656 299.1579  76.7644  2.13101920  6365
